NORAD_CAT_ID,OBJECT_NAME,OBJECT_TYPE,EPOCH,MEAN_MOTION,ECCENTRICITY,INCLINATION,RA_OF_ASC_NODE,ARG_OF_PERICENTER,MEAN_ANOMALY,BSTAR,MEAN_MOTION_DOT,MEAN_MOTION_DDOT,TLE_LINE0,TLE_LINE1,TLE_LINE2,SEMIMAJOR_AXIS,PERIOD,APOGEE,PERIGEE,DECAYED
52553.0,STARLINK-3858,PAYLOAD,2023-12-20 19:10:22,15.10477711,0.0001352,53.2167,164.6575,84.272,275.8427,0.00010059,1.382e-05,0.0,0 STARLINK-3858,1 52553U 22051W   23354.79886717  .00001382  00000-0  10059-3 0  9992,2 52553  53.2167 164.6575 0001352  84.2720 275.8427 15.10477711 89189,6912.879,95.334,535.679,533.809,0.0
52553.0,STARLINK-3858,PAYLOAD,2023-12-21 15:49:03,15.10464931,0.0001392,53.2173,160.7857,87.5953,272.5199,-9.9746e-06,-4.59e-06,0.0,0 STARLINK-3858,1 52553U 22051W   23355.65907078 -.00000459  00000-0 -99746-5 0  9990,2 52553  53.2173 160.7857 0001392  87.5953 272.5199 15.10464931 89386,6912.918,95.335,535.745,533.821,0.0
52553.0,STARLINK-3858,PAYLOAD,2023-12-22 17:13:34,15.10474574,0.0001508,53.2163,156.0312,64.5874,295.5275,5.5414e-05,6.3e-06,0.0,0 STARLINK-3858,1 52553U 22051W   23356.71776296  .00000630  00000-0  55414-4 0  9996,2 52553  53.2163 156.0312 0001508  64.5874 295.5275 15.10474574 89547,6912.889,95.334,535.796,533.711,0.0
52553.0,STARLINK-3858,PAYLOAD,2023-12-23 13:52:13,15.10487979,0.000102,53.2164,152.152,90.1088,270.0022,0.00036089,5.722e-05,0.0,0 STARLINK-3858,1 52553U 22051W   23357.57793297  .00005722  00000-0  36089-3 0  9994,2 52553  53.2164 152.1520 0001020  90.1088 270.0022 15.10487979 89605,6912.848,95.333,535.418,534.008,0.0
52553.0,STARLINK-3858,PAYLOAD,2023-12-23 17:02:47,15.1050054,0.0001224,53.2159,151.5526,75.9001,284.2127,0.00064587,0.00010483,0.0,0 STARLINK-3858,1 52553U 22051W   23357.71027383  .00010483  00000-0  64587-3 0  9990,2 52553  53.2159 151.5526 0001224  75.9001 284.2127 15.10500540 89692,6912.809,95.333,535.521,533.828,0.0
52553.0,STARLINK-3858,PAYLOAD,2023-12-23 20:13:21,15.10510385,0.0001249,53.2157,150.9544,75.3817,284.7314,0.00079128,0.00012917,0.0,0 STARLINK-3858,1 52553U 22051W   23357.84260734  .00012917  00000-0  79128-3 0  9994,2 52553  53.2157 150.9544 0001249  75.3817 284.7314 15.10510385 89645,6912.779,95.332,535.508,533.781,0.0
52553.0,STARLINK-3858,PAYLOAD,2023-12-24 10:30:53,15.10488455,9.27e-05,53.2158,148.2791,57.774,302.3343,-6.507e-05,-1.376e-05,0.0,0 STARLINK-3858,1 52553U 22051W   23358.43811999 -.00001376  00000-0 -65070-4 0  9996,2 52553  53.2158 148.2791 0000927  57.7740 302.3343 15.10488455 89800,6912.846,95.333,535.352,534.07,0.0
52553.0,STARLINK-3858,PAYLOAD,2023-12-24 13:41:26,15.10501151,0.0001846,53.2147,147.6694,119.6925,240.4252,0.00024747,3.832e-05,0.0,0 STARLINK-3858,1 52553U 22051W   23358.57045006  .00003832  00000-0  24747-3 0  9991,2 52553  53.2147 147.6694 0001846 119.6925 240.4252 15.10501151 89751,6912.808,95.333,535.949,533.396,0.0
52553.0,STARLINK-3858,PAYLOAD,2023-12-24 16:52:00,15.10495245,0.000135,53.2158,147.0854,82.2011,277.9135,0.00015894,2.356e-05,0.0,0 STARLINK-3858,1 52553U 22051W   23358.70278928  .00002356  00000-0  15894-3 0  9990,2 52553  53.2158 147.0854 0001350  82.2011 277.9135 15.10495245 89779,6912.826,95.333,535.624,533.757,0.0
52553.0,STARLINK-3858,PAYLOAD,2023-12-25 10:20:07,15.10479717,0.0001558,53.2165,143.8127,94.7906,265.3264,6.9407e-05,8.63e-06,0.0,0 STARLINK-3858,1 52553U 22051W   23359.43064107  .00000863  00000-0  69407-4 0  9994,2 52553  53.2165 143.8127 0001558  94.7906 265.3264 15.10479717 89955,6912.873,95.334,535.815,533.661,0.0
52553.0,STARLINK-3858,PAYLOAD,2023-12-25 13:30:41,15.10482564,0.0001506,53.2164,143.2171,92.1726,267.9439,-3.4059e-06,-3.49e-06,0.0,0 STARLINK-3858,1 52553U 22051W   23359.56297606 -.00000349  00000-0 -34059-5 0  9997,2 52553  53.2164 143.2171 0001506  92.1726 267.9439 15.10482564 89903,6912.864,95.334,535.77,533.688,0.0
52553.0,STARLINK-3858,PAYLOAD,2023-12-25 16:41:14,15.10486006,0.0001375,53.2153,142.6195,89.6161,270.499,-1.2634e-05,-5.03e-06,0.0,0 STARLINK-3858,1 52553U 22051W   23359.69531035 -.00000503  00000-0 -12634-4 0  9994,2 52553  53.2153 142.6195 0001375  89.6161 270.4990 15.10486006 89926,6912.854,95.334,535.669,533.768,0.0
52553.0,STARLINK-3858,PAYLOAD,2023-12-26 14:55:12,15.10476275,0.000144,53.2154,138.4508,93.5743,266.5415,6.1004e-05,7.23e-06,0.0,0 STARLINK-3858,1 52553U 22051W   23360.62167013  .00000723  00000-0  61004-4 0  9997,2 52553  53.2154 138.4508 0001440  93.5743 266.5415 15.10476275 90063,6912.883,95.334,535.744,533.753,0.0
52553.0,STARLINK-3858,PAYLOAD,2023-12-26 16:30:29,15.10479265,0.0001433,53.2159,138.1519,91.3916,268.7241,9.0558e-05,1.215e-05,0.0,0 STARLINK-3858,1 52553U 22051W   23360.68783649  .00001215  00000-0  90558-4 0  9995,2 52553  53.2159 138.1519 0001433  91.3916 268.7241 15.10479265 90149,6912.874,95.334,535.73,533.749,0.0
52553.0,STARLINK-3858,PAYLOAD,2023-12-27 14:44:26,15.10478967,0.0001392,53.2159,133.9836,91.7145,268.4008,7.2572e-05,9.16e-06,0.0,0 STARLINK-3858,1 52553U 22051W   23361.61419143  .00000916  00000-0  72572-4 0  9997,2 52553  53.2159 133.9836 0001392  91.7145 268.4008 15.10478967 90210,6912.875,95.334,535.703,533.778,0.0
52553.0,STARLINK-3858,PAYLOAD,2023-12-27 16:19:43,15.10480139,0.0001323,53.2163,133.6856,86.3868,273.7276,0.00013911,2.024e-05,0.0,0 STARLINK-3858,1 52553U 22051W   23361.68035925  .00002024  00000-0  13911-3 0  9999,2 52553  53.2163 133.6856 0001323  86.3868 273.7276 15.10480139 90221,6912.872,95.334,535.651,533.822,0.0
52553.0,STARLINK-3858,PAYLOAD,2023-12-28 08:12:33,15.10460809,0.0001205,53.2172,130.7143,95.6204,264.4926,0.00053458,8.614e-05,0.0,0 STARLINK-3858,1 52553U 22051W   23362.34204869  .00008614  00000-0  53458-3 0  9999,2 52553  53.2172 130.7143 0001205  95.6204 264.4926 15.10460809 90393,6912.931,95.335,535.629,533.963,0.0
52553.0,STARLINK-3858,PAYLOAD,2023-12-28 14:33:40,15.10466906,0.0001296,53.2174,129.5195,94.0941,266.02,0.00023394,3.603e-05,0.0,0 STARLINK-3858,1 52553U 22051W   23362.60672082  .00003603  00000-0  23394-3 0  9993,2 52553  53.2174 129.5195 0001296  94.0941 266.0200 15.10466906 90363,6912.912,95.335,535.673,533.881,0.0
52553.0,STARLINK-3858,PAYLOAD,2023-12-28 16:08:57,15.10477454,0.0001393,53.2174,129.2207,77.5226,282.5923,8.8465e-05,1.18e-05,0.0,0 STARLINK-3858,1 52553U 22051W   23362.67288216  .00001180  00000-0  88465-4 0  9991,2 52553  53.2174 129.2207 0001393  77.5226 282.5923 15.10477454 90448,6912.88,95.334,535.708,533.782,0.0
52553.0,STARLINK-3858,PAYLOAD,2023-12-29 08:01:46,15.10471847,0.0001268,53.2171,126.2436,69.6672,290.4457,0.00019604,2.972e-05,0.0,0 STARLINK-3858,1 52553U 22051W   23363.33456898  .00002972  00000-0  19604-3 0  9996,2 52553  53.2171 126.2436 0001268  69.6672 290.4457 15.10471847 90545,6912.897,95.334,535.639,533.885,0.0
52553.0,STARLINK-3858,PAYLOAD,2023-12-29 14:22:54,15.10479943,0.0001417,53.2169,125.0522,68.9375,291.1769,3.1221e-05,2.27e-06,0.0,0 STARLINK-3858,1 52553U 22051W   23363.59923878  .00000227  00000-0  31221-4 0  9992,2 52553  53.2169 125.0522 0001417  68.9375 291.1769 15.10479943 90519,6912.872,95.334,535.717,533.758,0.0
52553.0,STARLINK-3858,PAYLOAD,2023-12-30 14:12:08,15.10479357,0.0001581,53.2174,120.587,58.5436,301.5711,0.00013168,1.9e-05,0.0,0 STARLINK-3858,1 52553U 22051W   23364.59176403  .00001900  00000-0  13168-3 0  9995,2 52553  53.2174 120.5870 0001581  58.5436 301.5711 15.10479357 90664,6912.874,95.334,535.832,533.646,0.0
52553.0,STARLINK-3858,PAYLOAD,2023-12-31 12:26:05,15.10473973,0.0001424,53.2175,116.4182,65.0602,295.0539,7.1598e-05,8.99e-06,0.0,0 STARLINK-3858,1 52553U 22051W   23365.51812166  .00000899  00000-0  71598-4 0  9999,2 52553  53.2175 116.4182 0001424  65.0602 295.0539 15.10473973 90875,6912.89,95.334,535.74,533.771,0.0
52553.0,STARLINK-3858,PAYLOAD,2023-12-31 14:01:22,15.10475333,0.0001541,53.2175,116.1204,64.7592,295.3561,6.2966e-05,7.56e-06,0.0,0 STARLINK-3858,1 52553U 22051W   23365.58428915  .00000756  00000-0  62966-4 0  9992,2 52553  53.2175 116.1204 0001541  64.7592 295.3561 15.10475333 90815,6912.886,95.334,535.817,533.686,0.0
52553.0,STARLINK-3858,PAYLOAD,2024-01-01 13:50:39,15.10431876,0.0001566,53.2175,111.6531,74.5567,285.5599,-0.000311,-5.46e-05,0.0,0 STARLINK-3858,1 52553U 22051W   24001.57685080 -.00005460  00000-0 -31100-3 0  9991,2 52553  53.2175 111.6531 0001566  74.5567 285.5599 15.10431876 90968,6913.019,95.337,535.967,533.801,0.0
52553.0,STARLINK-3858,PAYLOAD,2024-01-01 17:01:18,15.10372791,0.0001899,53.2173,111.0572,68.1456,291.9739,-0.00077623,-0.00013155,0.0,0 STARLINK-3858,1 52553U 22051W   24001.70924382 -.00013155  00000-0 -77623-3 0  9997,2 52553  53.2173 111.0572 0001899  68.1456 291.9739 15.10372791 91058,6913.199,95.341,536.377,533.751,0.0
52553.0,STARLINK-3858,PAYLOAD,2024-01-01 21:47:18,15.10260421,9.57e-05,53.2175,110.1641,99.3147,260.7954,-0.0016263,-0.00027103,0.0,0 STARLINK-3858,1 52553U 22051W   24001.90785785 -.00027103  00000-0 -16263-2 0  9991,2 52553  53.2175 110.1641 0000957  99.3147 260.7954 15.10260421 91086,6913.542,95.348,536.069,534.746,0.0
52553.0,STARLINK-3858,PAYLOAD,2024-01-02 12:07:57,15.0786266,0.0007063,53.2173,107.4967,102.5769,257.6013,-0.021451,-0.00318542,0.0,0 STARLINK-3858,1 52553U 22051W   24002.50553134 -.00318542  00000-0 -21451-1 0  9993,2 52553  53.2173 107.4967 0007063 102.5769 257.6013 15.07862660 91176,6920.869,95.499,547.623,537.846,0.0
52553.0,STARLINK-3858,PAYLOAD,2024-01-02 22:00:00,15.08954913,0.0001132,53.2159,105.6282,69.6941,16.3257,-0.012763,-0.00198484,0.0,0 STARLINK-3858,1 52553U 22051W   24002.91667824 -.00198484  00000-0 -12763-1 0  9997,2 52553  53.2159 105.6282 0001132  69.6941  16.3257 15.08954913 91237,6917.529,95.43,540.177,538.611,0.0
52553.0,STARLINK-3858,PAYLOAD,2024-01-03 06:00:00,15.0881785,0.0001126,53.2162,104.1305,79.6386,18.0267,0.0016439,0.00025956,0.0,0 STARLINK-3858,1 52553U 22051W   24003.25001157  .00025956  00000-0  16439-2 0  9992,2 52553  53.2162 104.1305 0001126  79.6386  18.0267 15.08817850 91281,6917.948,95.439,540.592,539.034,0.0
